STARLETTE               
1 07646U 75010A   16292.54724893 -.00000124  00000-0  13023-4 0  9999
2 07646  49.8264 352.0891 0205734 286.6018  71.2374 13.82301347106427
LAGEOS 1                
1 08820U 76039A   16292.16677234  .00000007  00000-0  00000+0 0  9995
2 08820 109.8587  50.4820 0044589 337.6626  93.8883  6.38664889688188
AJISAI (EGS)            
1 16908U 86061A   16291.91617966 -.00000079  00000-0  12623-3 0  9993
2 16908  50.0085 199.4904 0011253 197.0358 242.9864 12.44484467 41065
LAGEOS 2                
1 22195U 92070B   16292.19230810 -.00000009  00000-0  00000+0 0  9990
2 22195  52.6708 337.0113 0137881  84.1433 274.3378  6.47293769567160
STELLA                  
1 22824U 93061B   16292.16956414 -.00000030  00000-0  59617-5 0  9990
2 22824  98.7810 241.4045 0007048  38.3364  89.8302 14.27365357201487
GRACE-1                 
1 27391U 02012A   16292.55184947  .00015515  00000-0  11385-3 0  9998
2 27391  88.9982 356.0555 0003192 328.0604 167.8690 15.72992011819401
GRACE-2                 
1 27392U 02012B   16291.76404982  .00017200  00000-0  12636-3 0  9998
2 27392  88.9992 356.2691 0003305 332.7124  27.3976 15.72968196819270
LARES                   
1 38077U 12006A   16292.39229893 -.00000022  00000-0  10000-3 0  9998
2 38077  69.4925 199.7449 0007927 148.1518 211.9989 12.54930860214439
